     2.100          NAVIGATION                              RINEX VERSION / TYPE
fic2rin                                 01/08/2018 00:06:07 PGM / RUN BY / DATE
                                                            END OF HEADER
14 18  1  7  4  0  0.0 -.919592566788D-04 -.682121026330D-12  .000000000000D+00
     .770000000000D+02  .488750000000D+02  .464340770228D-08  .177432900900D+01
     .251457095146D-05  .925183622167D-02  .859797000885D-05  .515372360229D+04
     .144000000000D+05 -.102445483208D-06  .192533367920D+01 -.203028321266D-06
     .960989928059D+00  .211593750000D+03 -.195429148719D+01 -.811319509000D-08
     .417160233541D-09  .100000000000D+01  .198300000000D+04  .000000000000D+00
     .240000000000D+01  .000000000000D+00 -.977888703346D-08  .770000000000D+02
     .720600000000D+04  .400000000000D+01
16 18  1  7  4  0  0.0  .344370491803D-04 -.568434188608D-12  .000000000000D+00
     .920000000000D+02  .195000000000D+02  .380015829185D-08  .300981941815D+01
     .989064574242D-06  .966988527216D-02  .111181288958D-04  .515356867790D+04
     .144000000000D+05 -.800937414169D-07 -.226048343327D+01 -.124797224998D-06
     .988275009187D+00  .179406250000D+03  .454066799602D+00 -.754067124208D-08
    -.195722438339D-09  .100000000000D+01  .198300000000D+04  .000000000000D+00
     .240000000000D+01  .000000000000D+00 -.107102096081D-07  .920000000000D+02
     .720600000000D+04  .400000000000D+01
17 18  1  7  4  0  0.0 -.132694840431D-03  .284217094304D-11  .000000000000D+00
     .790000000000D+02  .388437500000D+02  .408981321428D-08  .204037509340D+01
     .180490314960D-05  .123530757846D-01  .645592808723D-05  .515374245262D+04
     .144000000000D+05  .596046447754D-07 -.124419776777D+01 -.281259417534D-06
     .981608757751D+00  .263281250000D+03 -.180789736863D+01 -.785032699763D-08
     .203579908492D-09  .100000000000D+01  .198300000000D+04  .000000000000D+00
     .240000000000D+01  .000000000000D+00 -.111758708954D-07  .790000000000D+02
     .720600000000D+04  .400000000000D+01
18 18  1  7  4  0  0.0  .633588060737D-03  .000000000000D+00  .000000000000D+00
     .970000000000D+02 -.685937500000D+02  .494163441034D-08 -.267532402880D+01
    -.355578958988D-05  .183241422055D-01  .104047358036D-04  .515365204239D+04
     .144000000000D+05  .232830643654D-06  .747979091783D+00  .558793544769D-08
     .926381559488D+00  .155875000000D+03 -.176103862208D+01 -.792211570220D-08
     .000000000000D+00  .100000000000D+01  .198300000000D+04  .000000000000D+00
     .240000000000D+01  .000000000000D+00 -.111758708954D-07  .970000000000D+02
     .720600000000D+04  .400000000000D+01
19 18  1  7  4  0  0.0 -.465267337859D-03  .238742359215D-11  .000000000000D+00
     .920000000000D+02  .429375000000D+02  .419874632321D-08 -.123794750295D+01
     .246800482273D-05  .972127937712D-02  .584125518799D-05  .515369663620D+04
     .144000000000D+05  .968575477600D-07 -.119686802743D+01  .175088644028D-06
     .979039452283D+00  .276562500000D+03  .110975084181D+01 -.806283584948D-08
     .223937899341D-09  .100000000000D+01  .198300000000D+04  .000000000000D+00
     .340000000000D+01  .000000000000D+00 -.153668224812D-07  .920000000000D+02
     .720600000000D+04  .400000000000D+01
20 18  1  7  4  0  0.0  .497634522617D-03  .102318153949D-11  .000000000000D+00
     .780000000000D+02 -.629687500000D+02  .519700219029D-08  .987407182775D+00
    -.344030559063D-05  .457831670064D-02  .100322067738D-04  .515377288246D+04
     .144000000000D+05  .111758708954D-07  .696958249669D+00 -.651925802231D-07
     .927836182821D+00  .172812500000D+03  .175751798244D+01 -.838570644119D-08
    -.137148569931D-09  .100000000000D+01  .198300000000D+04  .000000000000D+00
     .240000000000D+01  .000000000000D+00 -.838190317154D-08  .780000000000D+02
     .720600000000D+04  .400000000000D+01
21 18  1  7  4  0  0.0 -.444481149316D-03  .409272615798D-11  .000000000000D+00
     .520000000000D+02 -.492500000000D+02  .506235372450D-08 -.178030538923D+01
    -.216066837311D-05  .242365569575D-01  .376999378204D-05  .515378455353D+04
     .144000000000D+05  .327825546265D-06 -.290877098507D+00  .402331352234D-06
     .942551326143D+00  .291250000000D+03 -.161010247642D+01 -.834141888215D-08
    -.126433837905D-09  .100000000000D+01  .198300000000D+04  .000000000000D+00
     .240000000000D+01  .000000000000D+00 -.102445483208D-07  .520000000000D+02
     .720600000000D+04  .400000000000D+01
22 18  1  7  4  0  0.0 -.248365104198D-03 -.129602995003D-10  .000000000000D+00
     .790000000000D+02 -.773125000000D+02  .524771858854D-08  .143773177356D+01
    -.419653952122D-05  .717969925608D-02  .103209167719D-04  .515363081551D+04
     .144000000000D+05 -.242143869400D-07  .747410196589D+00 -.184401869774D-06
     .924507796958D+00  .163343750000D+03 -.163187838215D+01 -.844678041374D-08
    -.127148153374D-09  .100000000000D+01  .198300000000D+04  .000000000000D+00
     .240000000000D+01  .000000000000D+00 -.176951289177D-07  .790000000000D+02
     .720600000000D+04  .400000000000D+01
23 18  1  7  4  0  0.0 -.219075009227D-03  .000000000000D+00  .000000000000D+00
     .780000000000D+02  .402500000000D+02  .502699510881D-08  .742060435373D+00
     .227987766266D-05  .118767012609D-01  .890716910362D-05  .515361642456D+04
     .144000000000D+05 -.117346644402D-06  .183637677315D+01  .130385160446D-06
     .943406482221D+00  .200062500000D+03 -.240608942228D+01 -.841177895579D-08
     .229295265354D-09  .100000000000D+01  .198300000000D+04  .000000000000D+00
     .240000000000D+01  .000000000000D+00 -.200234353542D-07  .780000000000D+02
     .720600000000D+04  .400000000000D+01
24 18  1  7  4  0  0.0 -.444664619863D-04 -.454747350886D-12  .000000000000D+00
     .590000000000D+02  .315625000000D+01  .528807741251D-08  .181099049971D+00
     .191852450371D-06  .662765640300D-02  .526942312717D-05  .515365741539D+04
     .144000000000D+05  .670552253723D-07  .285751437615D+01  .558793544769D-07
     .943215327104D+00  .269375000000D+03  .502213424622D+00 -.858464329914D-08
    -.207508643568D-09  .100000000000D+01  .198300000000D+04  .000000000000D+00
     .240000000000D+01  .000000000000D+00  .279396772385D-08  .590000000000D+02
     .720600000000D+04  .400000000000D+01
25 18  1  7  4  0  0.0 -.518251676112D-03 -.613908923697D-11  .000000000000D+00
     .101000000000D+03  .248437500000D+02  .416874507354D-08 -.178433864267D+01
     .116601586342D-05  .694289547391D-02  .966526567936D-05  .515370224380D+04
     .144000000000D+05  .102445483208D-06 -.233739919813D+01 -.316649675369D-07
     .975614869315D+00  .201531250000D+03  .804328465246D+00 -.776246619502D-08
    -.116076263614D-09  .100000000000D+01  .198300000000D+04  .000000000000D+00
     .340000000000D+01  .000000000000D+00  .558793544769D-08  .101000000000D+03
     .720600000000D+04  .400000000000D+01
26 18  1  7  4  0  0.0 -.296704005450D-03  .139834810398D-10  .000000000000D+00
     .530000000000D+02  .168437500000D+02  .452340270359D-08 -.226260208536D+01
     .767409801483D-06  .250641605817D-02  .105537474155D-04  .515359483719D+04
     .144000000000D+05 -.223517417908D-07 -.235682293786D+01 -.726431608200D-07
     .957249825846D+00  .176531250000D+03 -.409053546151D-01 -.804819238237D-08
    -.237509893240D-09  .100000000000D+01  .198300000000D+04  .000000000000D+00
     .240000000000D+01  .000000000000D+00  .745058059692D-08  .530000000000D+02
     .720600000000D+04  .400000000000D+01
28 18  1  7  4  0  0.0  .677634496242D-03  .329691829393D-11  .000000000000D+00
     .860000000000D+02  .166875000000D+02  .375729936374D-08  .299155686964D+01
     .882893800735D-06  .199072388932D-01  .974908471107D-05  .515367337227D+04
     .144000000000D+05  .292435288429D-06 -.225613119054D+01 -.428408384323D-07
     .987114894669D+00  .200562500000D+03 -.153495155984D+01 -.739245078239D-08
    -.196079596074D-09  .100000000000D+01  .198300000000D+04  .000000000000D+00
     .240000000000D+01  .000000000000D+00 -.111758708954D-07  .860000000000D+02
     .720600000000D+04  .400000000000D+01
29 18  1  7  4  0  0.0  .514676328748D-03 -.534328137292D-11  .000000000000D+00
     .990000000000D+02  .518750000000D+02  .417410243955D-08 -.277742104936D+01
     .275485217571D-05  .418197130784D-03  .596605241299D-05  .515375392342D+04
     .144000000000D+05  .931322574615D-08 -.123378059731D+01 -.186264514923D-08
     .982826152826D+00  .273968750000D+03  .771311766174D+00 -.803962059675D-08
     .236081262304D-09  .100000000000D+01  .198300000000D+04  .000000000000D+00
     .240000000000D+01  .000000000000D+00 -.102445483208D-07  .990000000000D+02
     .720600000000D+04  .400000000000D+01
30 18  1  7  4  0  0.0  .114656519145D-03 -.318323145621D-11  .000000000000D+00
     .760000000000D+02  .675000000000D+01  .512021327744D-08 -.647629923312D+00
     .311061739922D-06  .302082474809D-02  .567920506001D-05  .515358126259D+04
     .144000000000D+05  .670552253723D-07  .295043229529D+01 -.111758708954D-07
     .945865537793D+00  .260031250000D+03 -.309351558447D+01 -.844749472921D-08
    -.162863926793D-09  .100000000000D+01  .198300000000D+04  .000000000000D+00
     .240000000000D+01  .000000000000D+00  .372529029846D-08  .760000000000D+02
     .720600000000D+04  .400000000000D+01
31 18  1  7  4  0  0.0  .150347594172D-03 -.250111042988D-11  .000000000000D+00
     .113000000000D+03 -.687500000000D+00  .476805575152D-08 -.967716425388D+00
    -.258907675743D-06  .883163709659D-02  .586360692978D-05  .515358130836D+04
     .144000000000D+05 -.558793544769D-08  .292669978052D+01 -.143423676491D-06
     .964896792693D+00  .264156250000D+03 -.180557207058D+00 -.828070206734D-08
    -.117147736816D-09  .100000000000D+01  .198300000000D+04  .000000000000D+00
     .340000000000D+01  .000000000000D+00 -.135041773319D-07  .113000000000D+03
     .720600000000D+04  .400000000000D+01
